STARLINK-31702          
1 59585U 24076X   26068.19829379 -.00002266  00000+0 -72846-4 0  9999
2 59585  43.0030  12.1073 0001618 250.6764 109.3912 15.27570248106423
FLOCK 4G-25             
1 62646U 25009AP  26068.74572546  .00010373  00000+0  38902-3 0  9990
2 62646  97.4049 151.4141 0000828 316.3151  43.8023 15.27424196 63734
